ANGOSAT 2               
1 54033U 22131A   26176.95728537  .00000146  00000+0  00000+0 0  9991
2 54033   0.0307 103.2080 0000720 356.0057 182.4991  1.00273515 13569
EUTELSAT HOTBIRD 13F    
1 54048U 22134A   26178.06503201  .00000099  00000+0  00000+0 0  9990
2 54048   0.0442 294.9090 0001793  73.4867 303.2161  1.00272929 13474
LDPE-2                  
1 54219U 22144A   26178.27914823  .00000115  00000+0  00000+0 0  9999
2 54219   5.6368  63.5720 0002108  92.3473  72.0431  1.00537935 11948
EUTELSAT HOTBIRD 13G    
1 54225U 22146A   26177.52567102  .00000098  00000+0  00000+0 0  9999
2 54225   0.0522 212.2213 0002041 321.3793 303.2805  1.00270897  7560
ZHONGXING-19            
1 54230U 22148A   26178.19697110 -.00000070  00000+0  00000+0 0  9995
2 54230   0.0330  79.0899 0002865  35.1251  35.2113  1.00272746 13482
GALAXY 31 (G-31)        
1 54243U 22153A   26178.21196190  .00000000  00000+0  00000+0 0  9992
2 54243   0.0200  27.2429 0001658  74.1270 129.2578  1.00270016  7232
GALAXY 32 (G-32)        
1 54244U 22153B   26178.14666053 -.00000163  00000+0  00000+0 0  9996
2 54244   0.0132  33.1835 0002070  14.2142 189.6632  1.00271923 13243
EUTELSAT 10B            
1 54259U 22157A   26178.16662250  .00000078  00000+0  00000+0 0  9997
2 54259   0.0634  98.9691 0001248 338.7035 267.5537  1.00261625 13121
GALAXY 35 (G-35)        
1 54741U 22170A   26178.28575045  .00000000  00000+0  00000+0 0  9991
2 54741   0.0196  14.7781 0002228  80.7780 189.6024  1.00269498 12991
GALAXY 36 (G-36)        
1 54742U 22170B   26178.14700720 -.00000174  00000+0  00000+0 0  9990
2 54742   0.0347 120.3355 0002887 328.9772 149.8739  1.00271496 12879
METEOSAT-12 (MTG-I1)    
1 54743U 22170C   26178.16462916  .00000004  00000+0  00000+0 0  9996
2 54743   0.7492  24.5536 0003658  71.9230 237.7437  1.00275485 13072
SHIJIAN-23 (SJ-23)      
1 55131U 23002A   26177.71502993 -.00000287  00000+0  00000+0 0  9997
2 55131   3.7417  78.2002 0003708 279.5981 316.2154  1.00085853 12608
APSTAR-6E               
1 55239U 23005A   26178.04856684 -.00000306  00000+0  00000+0 0  9997
2 55239   0.0335 251.2211 0000416 290.2474 245.1730  1.00269291 18786
USA 342                 
1 55263U 23008A   26176.29697652  .00000000  00000+0  00000+0 0  9990
2 55263   0.0025 336.7217 0000253 165.3803 262.0787  1.00268501 12597
LDPE-3A                 
1 55264U 23008B   26178.29280814  .00000044  00000+0  00000+0 0  9999
2 55264   2.3737  81.5495 0001506  51.5237  97.7731  0.99148812 11911
ELEKTRO-L 4             
1 55506U 23016A   26177.77588957 -.00000047  00000+0  00000+0 0  9992
2 55506   0.0836 148.9948 0000997  33.2871 177.7136  1.00271415 12435
AMAZONAS NEXUS          
1 55508U 23017A   26178.22388427 -.00000271  00000+0  00000+0 0  9995
2 55508   0.0360  37.6489 0005178  36.9277 220.3583  1.00271105  7148
ZHONGXING-26            
1 55686U 23023A   26177.26264867 -.00000342  00000+0  00000+0 0  9992
2 55686   0.0690  71.1877 0003378  21.9123  40.9482  1.00274356 12320
LUCH-5X (OLYMP-K 2)     
1 55841U 23031A   26177.67789358  .00000045  00000+0  00000+0 0  9995
2 55841   0.0326  81.1499 0001019 155.0923 344.5794  1.00270071 12034
GAOFEN-13 02            
1 55912U 23036A   26178.19393777 -.00000208  00000+0  00000+0 0  9995
2 55912   1.0221   2.3895 0003734 339.7339 151.2361  1.00269306 12190
SES-18                  
1 55970U 23038A   26178.27844573 -.00000089  00000+0  00000+0 0  9992
2 55970   0.0348 280.6632 0000615 222.4181 129.4457  1.00272260 12209
SES-19                  
1 55971U 23038B   26178.28725323  .00000099  00000+0  00000+0 0  9995
2 55971   0.0131 331.3049 0001999 126.5296 146.0609  1.00272776 12197
INTELSAT 40E (IS-40E)   
1 56174U 23052A   26178.19558528 -.00000163  00000+0  00000+0 0  9991
2 56174   0.0146  65.2023 0002415  60.5216 128.9968  1.00272233 11922
VIASAT-3 F1             
1 56370U 23060A   26177.93318262  .00000000  00000+0  00000+0 0  9997
2 56370   0.0222   3.7414 0001080 106.2923  51.9860  1.00267045 11534
ARCTURUS                
1 56371U 23060B   26177.89485947 -.00000176  00000+0  00000+0 0  9993
2 56371   2.7990  79.8193 0000384 207.4908  27.3984  1.00599177 11557
GS-1                    
1 56372U 23060C   26176.89916525 -.00000216  00000+0  00000+0 0  9999
2 56372   2.7474  79.7328 0003762 280.4751 326.9793  1.00272191  7627
BEIDOU-3 G4             
1 56564U 23066A   26177.97855154 -.00000269  00000+0  00000+0 0  9996
2 56564   0.4758 334.0149 0004817 175.4488 257.9658  1.00271118 11491
ARABSAT-7B (BADR-8)     
1 56757U 23075A   26178.16982919  .00000156  00000+0  00000+0 0  9996
2 56757   0.0740  27.8418 0004151   3.8076 330.7631  1.00270349 11212
NVS-01 (IRNSS-1J)       
1 56759U 23076A   26178.04770016 -.00000321  00000+0  00000+0 0  9994
2 56759   2.1430 243.8939 0002812  12.4506 165.5347  1.00274773 11210
NUSANTARA TIGA (SATRIA) 
1 57045U 23086A   26177.97967822 -.00000223  00000+0  00000+0 0  9999
2 57045   0.0359 358.7002 0002753 346.9227  68.1605  1.00269617  9855
H2SAT (HEINRICH HERTZ)  
1 57213U 23093A   26176.31122957  .00000011  00000+0  00000+0 0  9997
2 57213   0.0482 107.4304 0000848  17.0766 261.6799  1.00269986 10990
