OBJECT_NAME,OBJECT_ID,EPOCH,MEAN_MOTION,ECCENTRICITY,INCLINATION,RA_OF_ASC_NODE,ARG_OF_PERICENTER,MEAN_ANOMALY,EPHEMERIS_TYPE,CLASSIFICATION_TYPE,NORAD_CAT_ID,ELEMENT_SET_NO,REV_AT_EPOCH,BSTAR,MEAN_MOTION_DOT,MEAN_MOTION_DDOT
ANGOSAT 2,2022-131A,2026-06-25T22:58:29.455968,1.00273515,.00007206,0.0307,103.2080,356.0057,182.4991,0,U,54033,999,1356,0,.146E-5,0
EUTELSAT HOTBIRD 13F,2022-134A,2026-06-27T01:33:38.765664,1.00272929,.00017936,0.0442,294.9090,73.4867,303.2161,0,U,54048,999,1347,0,.99E-6,0
LDPE-2,2022-144A,2026-06-27T06:41:58.407072,1.00537935,.00021085,5.6368,63.5720,92.3473,72.0431,0,U,54219,999,1194,0,.115E-5,0
EUTELSAT HOTBIRD 13G,2022-146A,2026-06-26T12:36:57.976128,1.00270897,.0002041,0.0522,212.2213,321.3793,303.2805,0,U,54225,999,756,0,.98E-6,0
ZHONGXING-19,2022-148A,2026-06-27T04:43:38.303040,1.00272746,.00028658,0.0330,79.0899,35.1251,35.2113,0,U,54230,999,1348,0,-.7E-6,0
GALAXY 31 (G-31),2022-153A,2026-06-27T05:05:13.508160,1.00270016,.00016588,0.0200,27.2429,74.1270,129.2578,0,U,54243,999,723,0,0,0
GALAXY 32 (G-32),2022-153B,2026-06-27T03:31:11.469792,1.00271923,.00020703,0.0132,33.1835,14.2142,189.6632,0,U,54244,999,1324,0,-.163E-5,0
EUTELSAT 10B,2022-157A,2026-06-27T03:59:56.184000,1.00261625,.00012484,0.0634,98.9691,338.7035,267.5537,0,U,54259,999,1312,0,.78E-6,0
GALAXY 35 (G-35),2022-170A,2026-06-27T06:51:28.838880,1.00269498,.00022286,0.0196,14.7781,80.7780,189.6024,0,U,54741,999,1299,0,0,0
GALAXY 36 (G-36),2022-170B,2026-06-27T03:31:41.422080,1.00271496,.00028872,0.0347,120.3355,328.9772,149.8739,0,U,54742,999,1287,0,-.174E-5,0
METEOSAT-12 (MTG-I1),2022-170C,2026-06-27T03:57:03.959424,1.00275485,.00036585,0.7492,24.5536,71.9230,237.7437,0,U,54743,999,1307,0,.4E-7,0
SHIJIAN-23 (SJ-23),2023-002A,2026-06-26T17:09:38.585952,1.00085853,.0003708,3.7417,78.2002,279.5981,316.2154,0,U,55131,999,1260,0,-.287E-5,0
APSTAR-6E,2023-005A,2026-06-27T01:09:56.174976,1.00269291,.00004168,0.0335,251.2211,290.2474,245.1730,0,U,55239,999,1878,0,-.306E-5,0
USA 342,2023-008A,2026-06-25T07:07:38.771328,1.00268501,.0000253,0.0025,336.7217,165.3803,262.0787,0,U,55263,999,1259,0,0,0
LDPE-3A,2023-008B,2026-06-27T07:01:38.623296,0.99148812,.00015066,2.3737,81.5495,51.5237,97.7731,0,U,55264,999,1191,0,.44E-6,0
ELEKTRO-L 4,2023-016A,2026-06-26T18:37:16.858848,1.00271415,.00009976,0.0836,148.9948,33.2871,177.7136,0,U,55506,999,1243,0,-.47E-6,0
AMAZONAS NEXUS,2023-017A,2026-06-27T05:22:23.600928,1.00271105,.00051781,0.0360,37.6489,36.9277,220.3583,0,U,55508,999,714,0,-.271E-5,0
ZHONGXING-26,2023-023A,2026-06-26T06:18:12.845088,1.00274356,.0003378,0.0690,71.1877,21.9123,40.9482,0,U,55686,999,1232,0,-.342E-5,0
LUCH-5X (OLYMP-K 2),2023-031A,2026-06-26T16:16:10.005312,1.00270071,.0001019,0.0326,81.1499,155.0923,344.5794,0,U,55841,999,1203,0,.45E-6,0
GAOFEN-13 02,2023-036A,2026-06-27T04:39:16.223328,1.00269306,.00037346,1.0221,2.3895,339.7339,151.2361,0,U,55912,999,1219,0,-.208E-5,0
SES-18,2023-038A,2026-06-27T06:40:57.711072,1.00272260,.00006157,0.0348,280.6632,222.4181,129.4457,0,U,55970,999,1220,0,-.89E-6,0
SES-19,2023-038B,2026-06-27T06:53:38.679072,1.00272776,.00019997,0.0131,331.3049,126.5296,146.0609,0,U,55971,999,1219,0,.99E-6,0
INTELSAT 40E (IS-40E),2023-052A,2026-06-27T04:41:38.568192,1.00272233,.00024152,0.0146,65.2023,60.5216,128.9968,0,U,56174,999,1192,0,-.163E-5,0
VIASAT-3 F1,2023-060A,2026-06-26T22:23:46.978368,1.00267045,.000108,0.0222,3.7414,106.2923,51.9860,0,U,56370,999,1153,0,0,0
ARCTURUS,2023-060B,2026-06-26T21:28:35.858208,1.00599177,.0000384,2.7990,79.8193,207.4908,27.3984,0,U,56371,999,1155,0,-.176E-5,0
GS-1,2023-060C,2026-06-25T21:34:47.877600,1.00272191,.00037625,2.7474,79.7328,280.4751,326.9793,0,U,56372,999,762,0,-.216E-5,0
BEIDOU-3 G4,2023-066A,2026-06-26T23:29:06.853056,1.00271118,.0004817,0.4758,334.0149,175.4488,257.9658,0,U,56564,999,1149,0,-.269E-5,0
ARABSAT-7B (BADR-8),2023-075A,2026-06-27T04:04:33.242016,1.00270349,.00041516,0.0740,27.8418,3.8076,330.7631,0,U,56757,999,1121,0,.156E-5,0
NVS-01 (IRNSS-1J),2023-076A,2026-06-27T01:08:41.293824,1.00274773,.00028127,2.1430,243.8939,12.4506,165.5347,0,U,56759,999,1121,0,-.321E-5,0
NUSANTARA TIGA (SATRIA),2023-086A,2026-06-26T23:30:44.198208,1.00269617,.00027534,0.0359,358.7002,346.9227,68.1605,0,U,57045,999,985,0,-.223E-5,0
H2SAT (HEINRICH HERTZ),2023-093A,2026-06-25T07:28:10.234848,1.00269986,.0000848,0.0482,107.4304,17.0766,261.6799,0,U,57213,999,1099,0,.11E-6,0
